STARLINK-36088          
1 66941U 25286S   26068.08685588  .00021980  00000+0  75228-3 0  9995
2 66941  53.1617   1.3021 0001170  59.9837 300.1280 15.30189307 15320
2025-313BE              
1 67482U 25313BE  26068.69721505  .00077178  00000+0  26504-2 0  9996
2 67482  97.3989 145.3568 0007208 335.3714  24.7181 15.29801687  7972
