[{"OBJECT_NAME":"STARLINK-36088","OBJECT_ID":"2025-286S","EPOCH":"2026-03-09T02:05:04.348032","MEAN_MOTION":15.30189307,"ECCENTRICITY":0.00011706,"INCLINATION":53.1617,"RA_OF_ASC_NODE":1.3021,"ARG_OF_PERICENTER":59.9837,"MEAN_ANOMALY":300.128,"EPHEMERIS_TYPE":0,"CLASSIFICATION_TYPE":"U","NORAD_CAT_ID":66941,"ELEMENT_SET_NO":999,"REV_AT_EPOCH":1532,"BSTAR":0.00075227699,"MEAN_MOTION_DOT":0.0002198,"MEAN_MOTION_DDOT":0},{"OBJECT_NAME":"OBJECT BE","OBJECT_ID":"2025-313BE","EPOCH":"2026-03-09T16:43:59.380320","MEAN_MOTION":15.29801687,"ECCENTRICITY":0.00072083,"INCLINATION":97.3989,"RA_OF_ASC_NODE":145.3568,"ARG_OF_PERICENTER":335.3714,"MEAN_ANOMALY":24.7181,"EPHEMERIS_TYPE":0,"CLASSIFICATION_TYPE":"U","NORAD_CAT_ID":67482,"ELEMENT_SET_NO":999,"REV_AT_EPOCH":797,"BSTAR":0.0026504328,"MEAN_MOTION_DOT":0.00077178,"MEAN_MOTION_DDOT":0}]
